ACS3                    
1 59588U 24077B   24222.72471057  .00000089  00000+0  13910-3 0  9993
2 59588  97.4027 278.4628 0019020 310.5832  49.3664 13.67696060 14727
